{
    "links": {
        "self": "http://www.neowsapp.com/rest/v1/neo/3596495?api_key=iIulBulltgU6a56xZRHN4H3l9WmuAYTsLGpBGhQ2"
    },
    "id": "3596495",
    "neo_reference_id": "3596495",
    "name": "(2012 BZ61)",
    "designation": "2012 BZ61",
    "nasa_jpl_url": "http://ssd.jpl.nasa.gov/sbdb.cgi?sstr=3596495",
    "absolute_magnitude_h": 26.0,
    "estimated_diameter": {
        "kilometers": {
            "estimated_diameter_min": 0.0167708462,
            "estimated_diameter_max": 0.0375007522
        },
        "meters": {
            "estimated_diameter_min": 16.7708462163,
            "estimated_diameter_max": 37.5007521798
        },
        "miles": {
            "estimated_diameter_min": 0.0104209175,
            "estimated_diameter_max": 0.0233018799
        },
        "feet": {
            "estimated_diameter_min": 55.0224631002,
            "estimated_diameter_max": 123.0339677816
        }
    },
    "is_potentially_hazardous_asteroid": false,
    "close_approach_data": [
        {
            "close_approach_date": "2012-01-18",
            "close_approach_date_full": "2012-Jan-18 07:51",
            "epoch_date_close_approach": 1326873060000,
            "relative_velocity": {
                "kilometers_per_second": "8.992319234",
                "kilometers_per_hour": "32372.3492424946",
                "miles_per_hour": "20114.9188945934"
            },
            "miss_distance": {
                "astronomical": "0.0993151632",
                "lunar": "38.6335984848",
                "kilometers": "14857336.873422384",
                "miles": "9231921.0432775392"
            },
            "orbiting_body": "Earth"
        }
    ],
    "orbital_data": {
        "orbit_id": "5",
        "orbit_determination_date": "2019-07-16 06:14:54",
        "first_observation_date": "2012-01-26",
        "last_observation_date": "2012-01-27",
        "data_arc_in_days": 1,
        "observations_used": 21,
        "orbit_uncertainty": "8",
        "minimum_orbit_intersection": ".0992214",
        "jupiter_tisserand_invariant": "3.583",
        "epoch_osculation": "2455953.5",
        "eccentricity": ".4852775456052935",
        "semi_major_axis": "2.075880467735963",
        "inclination": "13.06002406654457",
        "ascending_node_longitude": "304.8327783631908",
        "orbital_period": "1092.450935066292",
        "perihelion_distance": "1.068502289383086",
        "perihelion_argument": "158.9200885479223",
        "aphelion_distance": "3.08325864608884",
        "perihelion_time": "2455932.522939047385",
        "mean_anomaly": "6.912660056886808",
        "mean_motion": ".3295342504129529",
        "equinox": "J2000",
        "orbit_class": {
            "orbit_class_type": "AMO",
            "orbit_class_description": "Near-Earth asteroid orbits similar to that of 1221 Amor",
            "orbit_class_range": "1.017 AU < q (perihelion) < 1.3 AU"
        }
    },
    "is_sentry_object": false
}